start=new Date('2023-03-31T00:00:00.000Z').valueOf();
sats=[{"OBJECT_ID":"2023-013Q","OBJECT_NAME":"STARLINK-5653","TIME_SYSTEM":"UTC","CENTER_NAME":"EARTH","EPHEMERIS_TYPE":"0","TLE_LINE2":"2 55345  43.0011  18.6531 0001410 264.1596 355.9199 15.67012857  1303","COUNTRY_CODE":"US","REF_FRAME":"TEME","DECAY_DATE":null,"EPOCH":"2023-03-31T00:00:00.999648","CLASSIFICATION_TYPE":"U","PERIOD":"91.895","FILE":"3875726","RA_OF_ASC_NODE":"18.6531","MEAN_MOTION":"15.67012857","OBJECT_TYPE":"PAYLOAD","MEAN_MOTION_DDOT":"0.0000000000000","GP_ID":"229186185","LAUNCH_DATE":"2023-01-26","SEMIMAJOR_AXIS":"6745.593","NORAD_CAT_ID":"55345","APOAPSIS":"368.409","MEAN_MOTION_DOT":"-0.00932530","RCS_SIZE":"LARGE","ECCENTRICITY":"0.00014100","SITE":"AFETR","INCLINATION":"43.0011","MEAN_ELEMENT_THEORY":"SGP4","MEAN_ANOMALY":"355.9199","PERIAPSIS":"366.507","ELEMENT_SET_NO":"999","REV_AT_EPOCH":"130","ARG_OF_PERICENTER":"264.1596","TLE_LINE1":"1 55345U 23013Q   23090.00001157 -.00932530  00000-0 -93640-2 0  9997","BSTAR":"-0.00936400000000"},{"DECAY_DATE":null,"EPOCH":"2023-03-31T00:00:00.999648","PERIOD":"93.716","CLASSIFICATION_TYPE":"U","FILE":"3875726","EPHEMERIS_TYPE":"0","TLE_LINE2":"2 55346  43.0004  22.4708 0001185 270.9879 242.8873 15.36562982  1301","REF_FRAME":"TEME","COUNTRY_CODE":"US","CENTER_NAME":"EARTH","OBJECT_ID":"2023-013R","OBJECT_NAME":"STARLINK-5631","TIME_SYSTEM":"UTC","LAUNCH_DATE":"2023-01-26","SEMIMAJOR_AXIS":"6834.419","APOAPSIS":"457.094","NORAD_CAT_ID":"55346","MEAN_MOTION_DDOT":"0.0000000000000","GP_ID":"229187436","RA_OF_ASC_NODE":"22.4708","MEAN_MOTION":"15.36562982","OBJECT_TYPE":"PAYLOAD","MEAN_ELEMENT_THEORY":"SGP4","SITE":"AFETR","INCLINATION":"43.0004","ECCENTRICITY":"0.00011850","MEAN_MOTION_DOT":"-0.00926355","RCS_SIZE":"LARGE","BSTAR":"-0.02771600000000","ELEMENT_SET_NO":"999","REV_AT_EPOCH":"130","ARG_OF_PERICENTER":"270.9879","TLE_LINE1":"1 55346U 23013R   23090.00001157 -.00926355  00000-0 -27716-1 0  9996","PERIAPSIS":"455.474","MEAN_ANOMALY":"242.8873"},{"PERIAPSIS":"453.929","MEAN_ANOMALY":"270.6002","BSTAR":"-0.02723800000000","REV_AT_EPOCH":"130","ARG_OF_PERICENTER":"260.0263","ELEMENT_SET_NO":"999","TLE_LINE1":"1 55347U 23013S   23090.00001157 -.00925955  00000-0 -27238-1 0  9991","ECCENTRICITY":"0.00011920","MEAN_MOTION_DOT":"-0.00925955","RCS_SIZE":"LARGE","MEAN_ELEMENT_THEORY":"SGP4","SITE":"AFETR","INCLINATION":"43.0003","GP_ID":"229187665","MEAN_MOTION_DDOT":"0.0000000000000","RA_OF_ASC_NODE":"22.4295","MEAN_MOTION":"15.37082615","OBJECT_TYPE":"PAYLOAD","LAUNCH_DATE":"2023-01-26","NORAD_CAT_ID":"55347","APOAPSIS":"455.558","SEMIMAJOR_AXIS":"6832.879","CENTER_NAME":"EARTH","OBJECT_ID":"2023-013S","TIME_SYSTEM":"UTC","OBJECT_NAME":"STARLINK-5663","EPOCH":"2023-03-31T00:00:00.999648","DECAY_DATE":null,"FILE":"3875726","CLASSIFICATION_TYPE":"U","PERIOD":"93.684","TLE_LINE2":"2 55347  43.0003  22.4295 0001192 260.0263 270.6002 15.37082615  1301","EPHEMERIS_TYPE":"0","COUNTRY_CODE":"US","REF_FRAME":"TEME"},{"RCS_SIZE":"LARGE","MEAN_MOTION_DOT":"-0.00926299","ECCENTRICITY":"0.00011850","INCLINATION":"43.0003","SITE":"AFETR","MEAN_ELEMENT_THEORY":"SGP4","MEAN_ANOMALY":"245.4157","PERIAPSIS":"455.052","TLE_LINE1":"1 55348U 23013T   23090.00001157 -.00926299  00000-0 -27586-1 0  9990","ELEMENT_SET_NO":"999","REV_AT_EPOCH":"130","ARG_OF_PERICENTER":"272.9787","BSTAR":"-0.02758600000000","OBJECT_NAME":"STARLINK-5609","TIME_SYSTEM":"UTC","OBJECT_ID":"2023-013T","CENTER_NAME":"EARTH","REF_FRAME":"TEME","COUNTRY_CODE":"US","EPHEMERIS_TYPE":"0","TLE_LINE2":"2 55348  43.0003  22.4597 0001185 272.9787 245.4157 15.36705483  1307","CLASSIFICATION_TYPE":"U","PERIOD":"93.707","FILE":"3875726","DECAY_DATE":null,"EPOCH":"2023-03-31T00:00:00.999648","OBJECT_TYPE":"PAYLOAD","RA_OF_ASC_NODE":"22.4597","MEAN_MOTION":"15.36705483","MEAN_MOTION_DDOT":"0.0000000000000","GP_ID":"229185935","SEMIMAJOR_AXIS":"6833.996","NORAD_CAT_ID":"55348","APOAPSIS":"456.671","LAUNCH_DATE":"2023-01-26"},{"CENTER_NAME":"EARTH","OBJECT_NAME":"STARLINK-5666","TIME_SYSTEM":"UTC","OBJECT_ID":"2023-013U","CLASSIFICATION_TYPE":"U","PERIOD":"93.702","FILE":"3875726","DECAY_DATE":null,"EPOCH":"2023-03-31T00:00:00.999648","COUNTRY_CODE":"US","REF_FRAME":"TEME","EPHEMERIS_TYPE":"0","TLE_LINE2":"2 55349  43.0003  22.4518 0001188 262.6626 258.8124 15.36785442  1307","MEAN_MOTION_DDOT":"0.0000000000000","GP_ID":"229186685","OBJECT_TYPE":"PAYLOAD","RA_OF_ASC_NODE":"22.4518","MEAN_MOTION":"15.36785442","SEMIMAJOR_AXIS":"6833.759","APOAPSIS":"456.436","NORAD_CAT_ID":"55349","LAUNCH_DATE":"2023-01-26","ECCENTRICITY":"0.00011880","RCS_SIZE":"LARGE","MEAN_MOTION_DOT":"-0.00926198","MEAN_ELEMENT_THEORY":"SGP4","INCLINATION":"43.0003","SITE":"AFETR","PERIAPSIS":"454.813","MEAN_ANOMALY":"258.8124","BSTAR":"-0.02751100000000","TLE_LINE1":"1 55349U 23013U   23090.00001157 -.00926198  00000-0 -27511-1 0  9997","ELEMENT_SET_NO":"999","REV_AT_EPOCH":"130","ARG_OF_PERICENTER":"262.6626"},{"REF_FRAME":"TEME","COUNTRY_CODE":"US","TLE_LINE2":"2 55350  43.0003  22.4441 0001171 270.5340 254.0813 15.36868823  1305","EPHEMERIS_TYPE":"0","FILE":"3875726","PERIOD":"93.697","CLASSIFICATION_TYPE":"U","EPOCH":"2023-03-31T00:00:00.999648","DECAY_DATE":null,"TIME_SYSTEM":"UTC","OBJECT_NAME":"STARLINK-5668","OBJECT_ID":"2023-013V","CENTER_NAME":"EARTH","NORAD_CAT_ID":"55350","APOAPSIS":"456.177","SEMIMAJOR_AXIS":"6833.512","LAUNCH_DATE":"2023-01-26","OBJECT_TYPE":"PAYLOAD","RA_OF_ASC_NODE":"22.4441","MEAN_MOTION":"15.36868823","GP_ID":"229186937","MEAN_MOTION_DDOT":"0.0000000000000","INCLINATION":"43.0003","SITE":"AFETR","MEAN_ELEMENT_THEORY":"SGP4","RCS_SIZE":"LARGE","MEAN_MOTION_DOT":"-0.00926369","ECCENTRICITY":"0.00011710","TLE_LINE1":"1 55350U 23013V   23090.00001157 -.00926369  00000-0 -27442-1 0  9992","REV_AT_EPOCH":"130","ARG_OF_PERICENTER":"270.5340","ELEMENT_SET_NO":"999","BSTAR":"-0.02744200000000","MEAN_ANOMALY":"254.0813","PERIAPSIS":"454.577"},{"MEAN_MOTION_DOT":"-0.00926524","RCS_SIZE":"LARGE","ECCENTRICITY":"0.00011630","SITE":"AFETR","INCLINATION":"43.0003","MEAN_ELEMENT_THEORY":"SGP4","MEAN_ANOMALY":"273.9276","PERIAPSIS":"452.398","REV_AT_EPOCH":"130","ARG_OF_PERICENTER":"271.7408","ELEMENT_SET_NO":"999","TLE_LINE1":"1 55351U 23013W   23090.00001157 -.00926524  00000-0 -26794-1 0  9995","BSTAR":"-0.02679400000000","OBJECT_ID":"2023-013W","TIME_SYSTEM":"UTC","OBJECT_NAME":"STARLINK-5659","CENTER_NAME":"EARTH","TLE_LINE2":"2 55351  43.0003  22.3929 0001163 271.7408 273.9276 15.37606114  1302","EPHEMERIS_TYPE":"0","REF_FRAME":"TEME","COUNTRY_CODE":"US","EPOCH":"2023-03-31T00:00:00.999648","DECAY_DATE":null,"FILE":"3875726","PERIOD":"93.652","CLASSIFICATION_TYPE":"U","MEAN_MOTION":"15.37606114","RA_OF_ASC_NODE":"22.3929","OBJECT_TYPE":"PAYLOAD","GP_ID":"229187166","MEAN_MOTION_DDOT":"0.0000000000000","LAUNCH_DATE":"2023-01-26","APOAPSIS":"453.987","NORAD_CAT_ID":"55351","SEMIMAJOR_AXIS":"6831.328"},{"PERIAPSIS":"453.674","MEAN_ANOMALY":"270.4749","BSTAR":"-0.02716300000000","TLE_LINE1":"1 55352U 23013X   23090.00001157 -.00926097  00000-0 -27163-1 0  9992","ARG_OF_PERICENTER":"263.3834","REV_AT_EPOCH":"130","ELEMENT_SET_NO":"999","ECCENTRICITY":"0.00011770","RCS_SIZE":"LARGE","MEAN_MOTION_DOT":"-0.00926097","MEAN_ELEMENT_THEORY":"SGP4","INCLINATION":"43.0003","SITE":"AFETR","GP_ID":"229186435","MEAN_MOTION_DDOT":"0.0000000000000","OBJECT_TYPE":"PAYLOAD","RA_OF_ASC_NODE":"22.4216","MEAN_MOTION":"15.37172308","APOAPSIS":"455.282","NORAD_CAT_ID":"55352","SEMIMAJOR_AXIS":"6832.613","LAUNCH_DATE":"2023-01-26","CENTER_NAME":"EARTH","TIME_SYSTEM":"UTC","OBJECT_NAME":"STARLINK-5547","OBJECT_ID":"2023-013X","FILE":"3875726","PERIOD":"93.679","CLASSIFICATION_TYPE":"U","EPOCH":"2023-03-31T00:00:00.999648","DECAY_DATE":null,"REF_FRAME":"TEME","COUNTRY_CODE":"US","TLE_LINE2":"2 55352  43.0003  22.4216 0001177 263.3834 270.4749 15.37172308  1308","EPHEMERIS_TYPE":"0"},{"OBJECT_ID":"2023-013Y","OBJECT_NAME":"STARLINK-5608","TIME_SYSTEM":"UTC","CENTER_NAME":"EARTH","EPHEMERIS_TYPE":"0","TLE_LINE2":"2 55353  43.0005  22.3346 0001182 267.0577 302.4258 15.38401680  1305","COUNTRY_CODE":"US","REF_FRAME":"TEME","DECAY_DATE":null,"EPOCH":"2023-03-31T00:00:00.999648","PERIOD":"93.604","CLASSIFICATION_TYPE":"U","FILE":"3875726","RA_OF_ASC_NODE":"22.3346","MEAN_MOTION":"15.38401680","OBJECT_TYPE":"PAYLOAD","MEAN_MOTION_DDOT":"0.0000000000000","GP_ID":"229186186","LAUNCH_DATE":"2023-01-26","SEMIMAJOR_AXIS":"6828.972","NORAD_CAT_ID":"55353","APOAPSIS":"451.644","MEAN_MOTION_DOT":"-0.00921039","RCS_SIZE":"LARGE","ECCENTRICITY":"0.00011820","SITE":"AFETR","INCLINATION":"43.0005","MEAN_ELEMENT_THEORY":"SGP4","MEAN_ANOMALY":"302.4258","PERIAPSIS":"450.030","ELEMENT_SET_NO":"999","ARG_OF_PERICENTER":"267.0577","REV_AT_EPOCH":"130","TLE_LINE1":"1 55353U 23013Y   23090.00001157 -.00921039  00000-0 -25935-1 0  9999","BSTAR":"-0.02593500000000"},{"INCLINATION":"43.0004","SITE":"AFETR","MEAN_ELEMENT_THEORY":"SGP4","RCS_SIZE":"LARGE","MEAN_MOTION_DOT":"-0.00926216","ECCENTRICITY":"0.00011700","TLE_LINE1":"1 55354U 23013Z   23090.00001157 -.00926216  00000-0 -26866-1 0  9996","ELEMENT_SET_NO":"999","REV_AT_EPOCH":"130","ARG_OF_PERICENTER":"266.1136","BSTAR":"-0.02686600000000","MEAN_ANOMALY":"276.3243","PERIAPSIS":"452.669","COUNTRY_CODE":"US","REF_FRAME":"TEME","EPHEMERIS_TYPE":"0","TLE_LINE2":"2 55354  43.0004  22.4007 0001170 266.1136 276.3243 15.37513029  1301","CLASSIFICATION_TYPE":"U","PERIOD":"93.658","FILE":"3875726","DECAY_DATE":null,"EPOCH":"2023-03-31T00:00:00.999648","OBJECT_NAME":"STARLINK-5649","TIME_SYSTEM":"UTC","OBJECT_ID":"2023-013Z","CENTER_NAME":"EARTH","SEMIMAJOR_AXIS":"6831.603","APOAPSIS":"454.268","NORAD_CAT_ID":"55354","LAUNCH_DATE":"2023-01-26","OBJECT_TYPE":"PAYLOAD","RA_OF_ASC_NODE":"22.4007","MEAN_MOTION":"15.37513029","MEAN_MOTION_DDOT":"0.0000000000000","GP_ID":"229187437"}];
